{
  "type": "FeatureCollection",
  "features": [
    {
      "type": "Feature",
      "properties": {
        "cn": 64,
        "id": "cn-1",
        "name": "Wald / B"
      },
      "geometry": {
        "type": "Polygon",
        "coordinates": [
          [
            [
              11.9185,
              49.9532
            ],
            [
              11.925,
              49.9532
            ],
            [
              11.926,
              49.947
            ],
            [
              11.9203,
              49.946
            ],
            [
              11.9185,
              49.9532
            ]
          ]
        ]
      }
    },
    {
      "type": "Feature",
      "properties": {
        "cn": 74,
        "id": "cn-2",
        "name": "Grünland / C"
      },
      "geometry": {
        "type": "Polygon",
        "coordinates": [
          [
            [
              11.925,
              49.9532
            ],
            [
              11.9302,
              49.9532
            ],
            [
              11.9298,
              49.946
            ],
            [
              11.926,
              49.947
            ],
            [
              11.925,
              49.9532
            ]
          ]
        ]
      }
    },
    {
      "type": "Feature",
      "properties": {
        "cn": 84,
        "id": "cn-3",
        "name": "Acker / C"
      },
      "geometry": {
        "type": "Polygon",
        "coordinates": [
          [
            [
              11.9303,
              49.9532
            ],
            [
              11.9415,
              49.9532
            ],
            [
              11.9405,
              49.9463
            ],
            [
              11.9325,
              49.9459
            ],
            [
              11.9303,
              49.9532
            ]
          ]
        ]
      }
    },
    {
      "type": "Feature",
      "properties": {
        "cn": 92,
        "id": "cn-4",
        "name": "Acker / D"
      },
      "geometry": {
        "type": "Polygon",
        "coordinates": [
          [
            [
              11.9225,
              49.9435
            ],
            [
              11.9395,
              49.9435
            ],
            [
              11.9388,
              49.9367
            ],
            [
              11.9232,
              49.9367
            ],
            [
              11.9225,
              49.9435
            ]
          ]
        ]
      }
    }
  ]
}
