{
  "type": "FeatureCollection",
  "features": [
    {
      "type": "Feature",
      "properties": {
        "id": "parcel-1"
      },
      "geometry": {
        "type": "LineString",
        "coordinates": [
          [
            11.9232,
            49.9424
          ],
          [
            11.927,
            49.9424
          ],
          [
            11.927,
            49.9449
          ],
          [
            11.9232,
            49.9449
          ],
          [
            11.9232,
            49.9424
          ]
        ]
      }
    },
    {
      "type": "Feature",
      "properties": {
        "id": "parcel-2"
      },
      "geometry": {
        "type": "LineString",
        "coordinates": [
          [
            11.928,
            49.9421
          ],
          [
            11.931600000000001,
            49.9421
          ],
          [
            11.931600000000001,
            49.944300000000005
          ],
          [
            11.928,
            49.944300000000005
          ],
          [
            11.928,
            49.9421
          ]
        ]
      }
    },
    {
      "type": "Feature",
      "properties": {
        "id": "parcel-3"
      },
      "geometry": {
        "type": "LineString",
        "coordinates": [
          [
            11.933,
            49.9419
          ],
          [
            11.9368,
            49.9419
          ],
          [
            11.9368,
            49.944199999999995
          ],
          [
            11.933,
            49.944199999999995
          ],
          [
            11.933,
            49.9419
          ]
        ]
      }
    },
    {
      "type": "Feature",
      "properties": {
        "id": "parcel-4"
      },
      "geometry": {
        "type": "LineString",
        "coordinates": [
          [
            11.9378,
            49.9417
          ],
          [
            11.9408,
            49.9417
          ],
          [
            11.9408,
            49.9441
          ],
          [
            11.9378,
            49.9441
          ],
          [
            11.9378,
            49.9417
          ]
        ]
      }
    }
  ]
}
