{
  "type": "FeatureCollection",
  "features": [
    {
      "type": "Feature",
      "properties": {
        "areaHa": 82,
        "cn": 71,
        "tcH": 1.3,
        "shareForestPct": 35,
        "shareGrasslandPct": 40,
        "shareArablePct": 25,
        "id": "tgb-1",
        "name": "Teilgebiet 1"
      },
      "geometry": {
        "type": "Polygon",
        "coordinates": [
          [
            [
              11.918,
              49.954
            ],
            [
              11.93,
              49.954
            ],
            [
              11.93,
              49.946
            ],
            [
              11.92,
              49.944
            ],
            [
              11.918,
              49.954
            ]
          ]
        ]
      }
    },
    {
      "type": "Feature",
      "properties": {
        "areaHa": 74,
        "cn": 78,
        "tcH": 1.1,
        "shareForestPct": 20,
        "shareGrasslandPct": 45,
        "shareArablePct": 35,
        "id": "tgb-2",
        "name": "Teilgebiet 2"
      },
      "geometry": {
        "type": "Polygon",
        "coordinates": [
          [
            [
              11.93,
              49.954
            ],
            [
              11.942,
              49.954
            ],
            [
              11.942,
              49.944
            ],
            [
              11.932,
              49.945
            ],
            [
              11.93,
              49.954
            ]
          ]
        ]
      }
    },
    {
      "type": "Feature",
      "properties": {
        "areaHa": 96,
        "cn": 83,
        "tcH": 0.9,
        "shareForestPct": 15,
        "shareGrasslandPct": 30,
        "shareArablePct": 55,
        "id": "tgb-3",
        "name": "Teilgebiet 3"
      },
      "geometry": {
        "type": "Polygon",
        "coordinates": [
          [
            [
              11.92,
              49.944
            ],
            [
              11.932,
              49.945
            ],
            [
              11.942,
              49.944
            ],
            [
              11.94,
              49.936
            ],
            [
              11.922,
              49.936
            ],
            [
              11.92,
              49.944
            ]
          ]
        ]
      }
    }
  ]
}
